NORAD_CAT_ID,OBJECT_NAME,OBJECT_TYPE,EPOCH,MEAN_MOTION,ECCENTRICITY,INCLINATION,RA_OF_ASC_NODE,ARG_OF_PERICENTER,MEAN_ANOMALY,BSTAR,MEAN_MOTION_DOT,MEAN_MOTION_DDOT,TLE_LINE0,TLE_LINE1,TLE_LINE2,SEMIMAJOR_AXIS,PERIOD,APOGEE,PERIGEE,DECAYED
53135.0,STARLINK-4023,PAYLOAD,2024-07-27 13:10:53,15.08845859,0.0001413,53.2164,303.3669,85.1801,274.9352,0.00044473,6.798e-05,0.0,0 STARLINK-4023,1 53135U 22083D   24209.54922584  .00006798  00000-0  44473-3 0  9993,2 53135  53.2164 303.3669 0001413  85.1801 274.9352 15.08845859112753,6917.862,95.437,540.705,538.75,0.0
53135.0,STARLINK-4023,PAYLOAD,2024-07-27 17:57:02,15.08856301,0.0001385,53.2163,302.4745,84.3814,275.7336,0.00093555,0.00014639,0.0,0 STARLINK-4023,1 53135U 22083D   24209.74794401  .00014639  00000-0  93555-3 0  9998,2 53135  53.2163 302.4745 0001385  84.3814 275.7336 15.08856301113149,6917.831,95.437,540.654,538.737,0.0
53135.0,STARLINK-4023,PAYLOAD,2024-07-28 13:01:40,15.08854294,0.0001204,53.2164,298.906,92.0595,268.0535,0.0012643,0.00019898,0.0,0 STARLINK-4023,1 53135U 22083D   24210.54282677  .00019898  00000-0  12643-2 0  9995,2 53135  53.2164 298.9060 0001204  92.0595 268.0535 15.08854294112909,6917.837,95.437,540.535,538.869,0.0
53135.0,STARLINK-4023,PAYLOAD,2024-07-28 22:33:59,15.08847192,0.0001081,53.2164,297.1217,77.2485,282.8628,0.00055123,8.498e-05,0.0,0 STARLINK-4023,1 53135U 22083D   24210.94026661  .00008498  00000-0  55123-3 0  9993,2 53135  53.2164 297.1217 0001081  77.2485 282.8628 15.08847192113323,6917.858,95.437,540.471,538.976,0.0
53135.0,STARLINK-4023,PAYLOAD,2024-07-29 12:52:27,15.08842862,0.0001228,53.216,294.4458,77.5753,282.5377,0.0011959,0.00018797,0.0,0 STARLINK-4023,1 53135U 22083D   24211.53642996  .00018797  00000-0  11959-2 0  9995,2 53135  53.2160 294.4458 0001228  77.5753 282.5377 15.08842862113057,6917.872,95.437,540.586,538.887,0.0
53135.0,STARLINK-4023,PAYLOAD,2024-07-29 22:24:46,15.08839608,0.0001586,53.2159,292.6611,78.3674,281.7496,0.0011991,0.00018847,0.0,0 STARLINK-4023,1 53135U 22083D   24211.93387382  .00018847  00000-0  11991-2 0  9996,2 53135  53.2159 292.6611 0001586  78.3674 281.7496 15.08839608113477,6917.882,95.438,540.844,538.649,0.0
53135.0,STARLINK-4023,PAYLOAD,2024-07-30 09:32:28,15.08845974,0.0001862,53.2157,290.5798,78.1746,281.9455,0.0013404,0.00021112,0.0,0 STARLINK-4023,1 53135U 22083D   24212.39755594  .00021112  00000-0  13404-2 0  9991,2 53135  53.2157 290.5798 0001862  78.1746 281.9455 15.08845974113181,6917.862,95.437,541.015,538.439,0.0
53135.0,STARLINK-4023,PAYLOAD,2024-07-30 14:18:38,15.08851969,0.0001725,53.2157,289.6873,79.5922,280.5265,0.0013348,0.00021026,0.0,0 STARLINK-4023,1 53135U 22083D   24212.59627559  .00021026  00000-0  13348-2 0  9993,2 53135  53.2157 289.6873 0001725  79.5922 280.5265 15.08851969113571,6917.844,95.437,540.902,538.515,0.0
53135.0,STARLINK-4023,PAYLOAD,2024-07-30 22:15:33,15.08845274,0.0001113,53.2156,288.2006,92.7859,267.3261,0.00076074,0.00011842,0.0,0 STARLINK-4023,1 53135U 22083D   24212.92747497  .00011842  00000-0  76074-3 0  9995,2 53135  53.2156 288.2006 0001113  92.7859 267.3261 15.08845274113627,6917.864,95.437,540.499,538.959,0.0
53135.0,STARLINK-4023,PAYLOAD,2024-07-31 12:34:02,15.08838882,0.0001189,53.2152,285.5237,88.4802,271.6326,0.00040762,6.205e-05,0.0,0 STARLINK-4023,1 53135U 22083D   24213.52364027  .00006205  00000-0  40762-3 0  9998,2 53135  53.2152 285.5237 0001189  88.4802 271.6326 15.08838882113359,6917.884,95.438,540.571,538.926,0.0
53135.0,STARLINK-4023,PAYLOAD,2024-07-31 14:09:25,15.08839136,0.0001186,53.2151,285.2263,90.7362,269.3766,0.00052432,8.066e-05,0.0,0 STARLINK-4023,1 53135U 22083D   24213.58988025  .00008066  00000-0  52432-3 0  9998,2 53135  53.2151 285.2263 0001186  90.7362 269.3766 15.08839136113724,6917.883,95.438,540.568,538.928,0.0
53135.0,STARLINK-4023,PAYLOAD,2024-08-01 14:00:12,15.08867121,0.0001259,53.215,280.7652,88.6986,271.415,0.0011052,0.00017358,0.0,0 STARLINK-4023,1 53135U 22083D   24214.58347445  .00017358  00000-0  11052-2 0  9990,2 53135  53.2150 280.7652 0001259  88.6986 271.4150 15.08867121113876,6917.797,95.436,540.533,538.792,0.0
53135.0,STARLINK-4023,PAYLOAD,2024-08-01 21:57:07,15.08862204,0.000121,53.2148,279.2776,92.005,268.108,0.0007487,0.00011655,0.0,0 STARLINK-4023,1 53135U 22083D   24214.91467287  .00011655  00000-0  74870-3 0  9996,2 53135  53.2148 279.2776 0001210  92.0050 268.1080 15.08862204113929,6917.813,95.436,540.515,538.84,0.0
53135.0,STARLINK-4023,PAYLOAD,2024-08-02 10:40:12,15.08848977,0.000175,53.2154,276.8988,101.5158,258.6031,0.00030819,4.621e-05,0.0,0 STARLINK-4023,1 53135U 22083D   24215.44459489  .00004621  00000-0  30819-3 0  9990,2 53135  53.2154 276.8988 0001750 101.5158 258.6031 15.08848977113648,6917.853,95.437,540.929,538.507,0.0
53135.0,STARLINK-4023,PAYLOAD,2024-08-02 13:50:59,15.08842437,0.0001487,53.2158,276.3046,101.6899,258.426,0.00017957,2.571e-05,0.0,0 STARLINK-4023,1 53135U 22083D   24215.57707561  .00002571  00000-0  17957-3 0  9991,2 53135  53.2158 276.3046 0001487 101.6899 258.4260 15.08842437114022,6917.873,95.437,540.767,538.709,0.0
53135.0,STARLINK-4023,PAYLOAD,2024-08-03 04:09:27,15.08840603,0.0001549,53.2165,273.6274,104.0925,256.0239,0.00014405,2.005e-05,0.0,0 STARLINK-4023,1 53135U 22083D   24216.17323737  .00002005  00000-0  14405-3 0  9994,2 53135  53.2165 273.6274 0001549 104.0925 256.0239 15.08840603113751,6917.879,95.438,540.815,538.672,0.0
53135.0,STARLINK-4023,PAYLOAD,2024-08-03 13:41:46,15.08849881,0.0001269,53.2154,271.8453,83.6614,276.4523,0.00019201,2.77e-05,0.0,0 STARLINK-4023,1 53135U 22083D   24216.57067437  .00002770  00000-0  19201-3 0  9998,2 53135  53.2154 271.8453 0001269  83.6614 276.4523 15.08849881114170,6917.85,95.437,540.593,538.837,0.0
53135.0,STARLINK-4023,PAYLOAD,2024-08-04 11:57:10,15.08847829,0.0001361,53.2152,267.6818,87.3984,272.7164,0.00044892,6.865e-05,0.0,0 STARLINK-4023,1 53135U 22083D   24217.49803680  .00006865  00000-0  44892-3 0  9991,2 53135  53.2152 267.6818 0001361  87.3984 272.7164 15.08847829113955,6917.856,95.437,540.663,538.78,0.0
53135.0,STARLINK-4023,PAYLOAD,2024-08-04 13:32:33,15.0885489,0.0001369,53.2151,267.3843,84.1873,275.9275,0.00020349,2.953e-05,0.0,0 STARLINK-4023,1 53135U 22083D   24217.56427235  .00002953  00000-0  20349-3 0  9992,2 53135  53.2151 267.3843 0001369  84.1873 275.9275 15.08854890114325,6917.835,95.437,540.647,538.753,0.0
53135.0,STARLINK-4023,PAYLOAD,2024-08-04 19:54:05,15.08855369,0.0001336,53.215,266.1948,84.5771,275.5374,0.00034655,5.234e-05,0.0,0 STARLINK-4023,1 53135U 22083D   24217.82923231  .00005234  00000-0  34655-3 0  9998,2 53135  53.2150 266.1948 0001336  84.5771 275.5374 15.08855369114364,6917.833,95.437,540.623,538.774,0.0
53135.0,STARLINK-4023,PAYLOAD,2024-08-05 11:47:57,15.0884409,0.0001585,53.2164,263.2238,91.7635,268.3539,7.8947e-05,9.69e-06,0.0,0 STARLINK-4023,1 53135U 22083D   24218.49163497  .00000969  00000-0  78947-4 0  9995,2 53135  53.2164 263.2238 0001585  91.7635 268.3539 15.08844090114108,6917.868,95.437,540.829,538.636,0.0
53135.0,STARLINK-4023,PAYLOAD,2024-08-05 19:44:53,15.0883821,0.0001567,53.2161,261.7367,87.3157,272.8015,-6.8917e-05,-1.385e-05,0.0,0 STARLINK-4023,1 53135U 22083D   24218.82283722 -.00001385  00000-0 -68917-4 0  9997,2 53135  53.2161 261.7367 0001567  87.3157 272.8015 15.08838210114512,6917.886,95.438,540.835,538.667,0.0
53135.0,STARLINK-4023,PAYLOAD,2024-08-06 03:41:49,15.08834198,0.0002105,53.2153,260.2498,84.9714,275.1518,-4.2628e-05,-9.67e-06,0.0,0 STARLINK-4023,1 53135U 22083D   24219.15404363 -.00000967  00000-0 -42628-4 0  9996,2 53135  53.2153 260.2498 0002105  84.9714 275.1518 15.08834198114204,6917.898,95.438,541.219,538.307,0.0
53135.0,STARLINK-4023,PAYLOAD,2024-08-06 11:38:46,15.08826408,0.000161,53.2188,258.7639,92.8446,267.2731,-5.8021e-05,-1.211e-05,0.0,0 STARLINK-4023,1 53135U 22083D   24219.48525469 -.00001211  00000-0 -58021-4 0  9990,2 53135  53.2188 258.7639 0001610  92.8446 267.2731 15.08826408114250,6917.922,95.438,540.901,538.673,0.0
53135.0,STARLINK-4023,PAYLOAD,2024-08-07 01:57:13,15.08835833,0.0001638,53.2176,256.0863,87.6669,272.451,7.7449e-05,9.45e-06,0.0,0 STARLINK-4023,1 53135U 22083D   24220.08140743  .00000945  00000-0  77449-4 0  9992,2 53135  53.2176 256.0863 0001638  87.6669 272.4510 15.08835833114341,6917.893,95.438,540.891,538.625,0.0
53135.0,STARLINK-4023,PAYLOAD,2024-08-07 11:29:32,15.08847595,0.0001536,53.2152,254.3008,85.4299,274.6868,0.00026455,3.926e-05,0.0,0 STARLINK-4023,1 53135U 22083D   24220.47884305  .00003926  00000-0  26455-3 0  9996,2 53135  53.2152 254.3008 0001536  85.4299 274.6868 15.08847595114404,6917.857,95.437,540.785,538.66,0.0
53135.0,STARLINK-4023,PAYLOAD,2024-08-08 11:20:18,15.08858537,0.0001532,53.2144,249.8396,82.8288,277.2878,0.00048812,7.493e-05,0.0,0 STARLINK-4023,1 53135U 22083D   24221.47243980  .00007493  00000-0  48812-3 0  9999,2 53135  53.2144 249.8396 0001532  82.8288 277.2878 15.08858537114913,6917.824,95.436,540.749,538.629,0.0
53135.0,STARLINK-4023,PAYLOAD,2024-08-09 01:38:47,15.08850668,0.000153,53.2139,247.1621,96.1761,263.9406,0.00013962,1.935e-05,0.0,0 STARLINK-4023,1 53135U 22083D   24222.06860046  .00001935  00000-0  13962-3 0  9996,2 53135  53.2139 247.1621 0001530  96.1761 263.9406 15.08850668114647,6917.848,95.437,540.771,538.654,0.0
53135.0,STARLINK-4023,PAYLOAD,2024-08-09 11:11:05,15.08852114,0.000153,53.2147,245.3783,99.5678,260.5487,0.00016786,2.385e-05,0.0,0 STARLINK-4023,1 53135U 22083D   24222.46603707  .00002385  00000-0  16786-3 0  9996,2 53135  53.2147 245.3783 0001530  99.5678 260.5487 15.08852114115066,6917.843,95.437,540.767,538.65,0.0
53135.0,STARLINK-4023,PAYLOAD,2024-08-09 19:08:01,15.08840602,0.000164,53.2152,243.8915,91.8167,268.3013,-4.9409e-06,-3.67e-06,0.0,0 STARLINK-4023,1 53135U 22083D   24222.79724146 -.00000367  00000-0 -49409-5 0  9993,2 53135  53.2152 243.8915 0001640  91.8167 268.3013 15.08840602114757,6917.879,95.438,540.878,538.609,0.0
